[{"OBJECT_NAME":"STARLINK-30554","OBJECT_ID":"2023-156W","EPOCH":"2026-03-09T13:13:19.079328","MEAN_MOTION":15.30186563,"ECCENTRICITY":0.00010802,"INCLINATION":53.1575,"RA_OF_ASC_NODE":168.6728,"ARG_OF_PERICENTER":101.2565,"MEAN_ANOMALY":258.8557,"EPHEMERIS_TYPE":0,"CLASSIFICATION_TYPE":"U","NORAD_CAT_ID":58048,"ELEMENT_SET_NO":999,"REV_AT_EPOCH":13496,"BSTAR":7.5244718e-5,"MEAN_MOTION_DOT":1.869e-5,"MEAN_MOTION_DDOT":0},{"OBJECT_NAME":"ION SCV-015","OBJECT_ID":"2023-185H","EPOCH":"2026-03-09T22:36:51.209568","MEAN_MOTION":15.3163624,"ECCENTRICITY":0.00109059,"INCLINATION":97.5772,"RA_OF_ASC_NODE":155.3582,"ARG_OF_PERICENTER":92.3805,"MEAN_ANOMALY":267.8685,"EPHEMERIS_TYPE":0,"CLASSIFICATION_TYPE":"U","NORAD_CAT_ID":58469,"ELEMENT_SET_NO":999,"REV_AT_EPOCH":12588,"BSTAR":0.00030895808,"MEAN_MOTION_DOT":9.376e-5,"MEAN_MOTION_DDOT":0}]
